[{"OBJECT_NAME":"QB50P2","OBJECT_ID":"2014-033Y","EPOCH":"2026-03-09T22:15:59.880096","MEAN_MOTION":15.13675048,"ECCENTRICITY":0.00085666,"INCLINATION":98.0738,"RA_OF_ASC_NODE":59.7545,"ARG_OF_PERICENTER":142.3387,"MEAN_ANOMALY":217.8444,"EPHEMERIS_TYPE":0,"CLASSIFICATION_TYPE":"U","NORAD_CAT_ID":40032,"ELEMENT_SET_NO":999,"REV_AT_EPOCH":63764,"BSTAR":0.00059145643,"MEAN_MOTION_DOT":0.00010584,"MEAN_MOTION_DDOT":0},{"OBJECT_NAME":"STARLINK-6183","OBJECT_ID":"2023-083AF","EPOCH":"2026-03-09T22:00:01.999584","MEAN_MOTION":15.10514117,"ECCENTRICITY":0.00016616,"INCLINATION":43.0003,"RA_OF_ASC_NODE":67.7507,"ARG_OF_PERICENTER":253.845,"MEAN_ANOMALY":52.3183,"EPHEMERIS_TYPE":0,"CLASSIFICATION_TYPE":"U","NORAD_CAT_ID":56905,"ELEMENT_SET_NO":999,"REV_AT_EPOCH":557,"BSTAR":0.0041494241,"MEAN_MOTION_DOT":0.0007004,"MEAN_MOTION_DDOT":0}]
